OBJECT_NAME,OBJECT_ID,EPOCH,MEAN_MOTION,ECCENTRICITY,INCLINATION,RA_OF_ASC_NODE,ARG_OF_PERICENTER,MEAN_ANOMALY,EPHEMERIS_TYPE,CLASSIFICATION_TYPE,NORAD_CAT_ID,ELEMENT_SET_NO,REV_AT_EPOCH,BSTAR,MEAN_MOTION_DOT,MEAN_MOTION_DDOT
SL-14 R/B,1990-010B,2026-07-07T07:59:53.367648,14.83659728,.00181568,82.5028,155.0249,265.2942,94.6200,0,U,20466,999,94622,.39443536E-4,.35E-5,0
SL-14 R/B,1990-018B,2026-07-07T17:40:17.367168,14.82230779,.0017491,82.5221,110.9020,59.7754,300.5190,0,U,20511,999,94036,.40235E-4,.345E-5,0
HST,1990-037B,2026-07-07T17:50:38.876064,15.31004769,.0001929,28.4736,300.0580,32.3247,327.7467,0,U,20580,999,79172,.14855E-3,.4811E-4,0
SL-16 R/B,1990-046B,2026-07-07T19:14:59.820864,14.15022877,.0012504,70.9985,45.6527,127.4295,232.7968,0,U,20625,999,86538,-.30814E-4,-.107E-5,0
COSMOS 2084,1990-055A,2026-07-07T07:27:57.769056,15.06204447,.00071224,62.7906,287.4010,310.3089,49.7388,0,U,20663,999,95433,.11530448E-3,.1496E-4,0
SL-6 R/B(2),1990-055D,2026-07-07T11:03:06.286752,15.04067163,.0043879,62.7798,206.3848,7.9446,352.2338,0,U,20666,999,95620,.1168168E-3,.1449E-4,0
SL-8 R/B,1990-078B,2026-07-07T07:16:32.268864,14.93355009,.03449347,82.9026,143.4549,330.3952,27.8119,0,U,20775,999,82712,.51344426E-3,.18135E-3,0
SL-8 R/B,1991-006B,2026-07-07T18:20:19.936032,13.77508264,.0023743,82.9418,80.7258,60.3095,358.6753,0,U,21088,999,78060,.50103E-4,.65E-6,0
OKEAN-3,1991-039A,2026-07-07T14:40:40.346112,15.05411160,.0011975,82.5138,220.5742,283.0580,76.9310,0,U,21397,999,88307,.94688E-4,.1388E-4,0
COSMOS 2151,1991-042A,2026-07-07T19:11:24.055008,15.00499282,.0012669,82.4976,327.7875,20.2258,339.9465,0,U,21422,999,88120,.1257E-3,.1612E-4,0
SL-14 R/B,1991-042B,2026-07-07T17:55:58.476576,14.81915276,.0016309,82.4936,107.6162,201.7532,158.2991,0,U,21423,999,87085,.32743E-4,.283E-5,0
ERS-1,1991-050A,2026-07-07T16:04:03.802080,14.39529497,.0031433,98.7794,209.8677,204.2578,155.7131,0,U,21574,999,83299,.7218E-4,.18E-5,0
ARIANE 40 R/B,1991-050F,2026-07-07T17:06:47.655648,14.42969128,.0004395,98.1865,236.3293,77.5884,282.5799,0,U,21610,999,83630,.75746E-4,.212E-5,0
INTERCOSMOS 25,1991-086A,2026-07-07T00:05:32.576928,12.12228872,.1484182,82.6021,237.8180,219.6061,128.6898,0,U,21819,999,51115,.24390944E-3,.1235E-4,0
SL-8 R/B,1992-008B,2026-07-07T10:22:25.214592,13.75982048,.00352106,82.9264,178.7347,157.8500,354.8046,0,U,21876,999,72588,.12094891E-3,.133E-5,0
SL-8 R/B,1992-020B,2026-07-07T18:52:14.686176,13.75550303,.002831,82.9292,64.5557,325.0262,103.7302,0,U,21938,999,71764,.42569E-5,.19E-6,0
USA 81,1992-023A,2026-07-07T17:49:28.657056,14.32403576,.0002305,85.0059,62.1422,68.4831,291.6607,0,U,21949,999,11197,.36932E-4,.12E-5,0
COSMOS 2219,1992-076A,2026-07-07T06:43:11.615520,14.14110104,.00177374,71.0614,128.0688,10.1700,349.9778,0,U,22219,999,73528,.19383452E-4,-.1E-6,0
SL-16 R/B,1992-076B,2026-07-07T17:23:17.435040,14.16874226,.0014995,71.0009,295.5183,271.6971,195.8666,0,U,22220,999,73883,.66915E-4,.86E-6,0
COSMOS 2221,1992-080A,2026-07-07T09:33:19.759104,14.96588785,.00151647,82.5037,164.4001,144.3451,215.8787,0,U,22236,999,79869,.12066159E-3,.1403E-4,0
SL-16 R/B,1992-093B,2026-07-07T19:22:26.623776,14.15466932,.0002715,71.0223,112.1043,150.6506,209.4770,0,U,22285,999,73015,.44664E-4,.4E-6,0
COSMOS 2228,1992-094A,2026-07-07T17:35:56.048640,14.97659814,.0015999,82.5189,122.3631,256.8354,103.1084,0,U,22286,999,79402,.12742E-3,.152E-4,0
SL-16 R/B,1993-016B,2026-07-07T17:15:04.796064,14.15311830,.0009083,71.0085,323.0831,151.4570,208.7052,0,U,22566,999,71915,-.65416E-4,-.175E-5,0
COSMOS 2242,1993-024A,2026-07-07T08:49:50.583648,14.96968252,.00143741,82.5192,152.2348,261.9777,97.9814,0,U,22626,999,79829,.13576429E-3,.1589E-4,0
SL-16 R/B,1993-059B,2026-07-07T06:03:26.689536,14.17251272,.00162313,70.9906,118.9903,20.8890,339.2893,0,U,22803,999,69647,.10919171E-4,-.26E-6,0
ARIANE 40 R/B,1993-061H,2026-07-07T17:38:08.774592,14.32916525,.0009499,98.4809,255.1642,290.7400,69.2766,0,U,22830,999,71129,.68083E-4,.143E-5,0
COSMOS 2278,1994-023A,2026-07-07T16:27:31.421376,14.14394633,.0009995,71.0537,284.0376,217.0234,143.0200,0,U,23087,999,66177,-.92609E-4,-.225E-5,0
SL-16 R/B,1994-023B,2026-07-06T16:31:45.141024,14.15024765,.00015995,70.9977,180.9760,157.4247,202.6946,0,U,23088,999,66292,-.8457289E-4,-.212E-5,0
SL-16 R/B,1994-074B,2026-07-07T00:36:09.410688,14.79519407,.00064561,97.6984,213.9188,179.4769,210.7216,0,U,23343,999,70489,.53512434E-4,.351E-5,0
SL-16 R/B,1994-077B,2026-07-07T18:06:30.178080,14.15576720,.0004014,70.9831,99.8938,309.3746,50.7021,0,U,23405,999,63322,-.10805E-3,-.259E-5,0
