SL-14 R/B               
1 20466U 90010B   26188.33325657  .00000350  00000+0  39444-4 0  9992
2 20466  82.5028 155.0249 0018156 265.2942  94.6200 14.83659728946229
SL-14 R/B               
1 20511U 90018B   26188.73631212  .00000345  00000+0  40235-4 0  9996
2 20511  82.5221 110.9020 0017491  59.7754 300.5190 14.82230779940366
HST                     
1 20580U 90037B   26188.74350551  .00004811  00000+0  14855-3 0  9998
2 20580  28.4736 300.0580 0001929  32.3247 327.7467 15.31004769791723
SL-16 R/B               
1 20625U 90046B   26188.80208126 -.00000107  00000+0 -30814-4 0  9995
2 20625  70.9985  45.6527 0012504 127.4295 232.7968 14.15022877865380
COSMOS 2084             
1 20663U 90055A   26188.31108529  .00001496  00000+0  11530-3 0  9992
2 20663  62.7906 287.4010 0007122 310.3089  49.7388 15.06204447954333
SL-6 R/B(2)             
1 20666U 90055D   26188.46048943  .00001449  00000+0  11682-3 0  9990
2 20666  62.7798 206.3848 0043879   7.9446 352.2338 15.04067163956204
SL-8 R/B                
1 20775U 90078B   26188.30315126  .00018135  00000+0  51344-3 0  9998
2 20775  82.9026 143.4549 0344934 330.3952  27.8119 14.93355009827129
SL-8 R/B                
1 21088U 91006B   26188.76411963  .00000065  00000+0  50103-4 0  9990
2 21088  82.9418  80.7258 0023743  60.3095 358.6753 13.77508264780606
OKEAN-3                 
1 21397U 91039A   26188.61157808  .00001388  00000+0  94688-4 0  9993
2 21397  82.5138 220.5742 0011975 283.0580  76.9310 15.05411160883078
COSMOS 2151             
1 21422U 91042A   26188.79958397  .00001612  00000+0  12570-3 0  9996
2 21422  82.4976 327.7875 0012669  20.2258 339.9465 15.00499282881209
SL-14 R/B               
1 21423U 91042B   26188.74720459  .00000283  00000+0  32743-4 0  9996
2 21423  82.4936 107.6162 0016309 201.7532 158.2991 14.81915276870855
ERS-1                   
1 21574U 91050A   26188.66948845  .00000180  00000+0  72180-4 0  9999
2 21574  98.7794 209.8677 0031433 204.2578 155.7131 14.39529497832993
ARIANE 40 R/B           
1 21610U 91050F   26188.71305157  .00000212  00000+0  75746-4 0  9996
2 21610  98.1865 236.3293 0004395  77.5884 282.5799 14.42969128836305
INTERCOSMOS 25          
1 21819U 91086A   26188.00384927  .00001235  00000+0  24391-3 0  9995
2 21819  82.6021 237.8180 1484182 219.6061 128.6898 12.12228872511154
SL-8 R/B                
1 21876U 92008B   26188.43223628  .00000133  00000+0  12095-3 0  9994
2 21876  82.9264 178.7347 0035210 157.8500 354.8046 13.75982048725888
SL-8 R/B                
1 21938U 92020B   26188.78628109  .00000019  00000+0  42569-5 0  9992
2 21938  82.9292  64.5557 0028310 325.0262 103.7302 13.75550303717646
USA 81                  
1 21949U 92023A   26188.74269279  .00000120  00000+0  36932-4 0  9991
2 21949  85.0059  62.1422 0002305  68.4831 291.6607 14.32403576111976
COSMOS 2219             
1 22219U 92076A   26188.27999555 -.00000010  00000+0  19383-4 0  9995
2 22219  71.0614 128.0688 0017737  10.1700 349.9778 14.14110104735283
SL-16 R/B               
1 22220U 92076B   26188.72450735  .00000086  00000+0  66915-4 0  9994
2 22220  71.0009 295.5183 0014995 271.6971 195.8666 14.16874226738832
COSMOS 2221             
1 22236U 92080A   26188.39814536  .00001403  00000+0  12066-3 0  9993
2 22236  82.5037 164.4001 0015164 144.3451 215.8787 14.96588785798695
SL-16 R/B               
1 22285U 92093B   26188.80725259  .00000040  00000+0  44664-4 0  9996
2 22285  71.0223 112.1043 0002715 150.6506 209.4770 14.15466932730152
COSMOS 2228             
1 22286U 92094A   26188.73328760  .00001520  00000+0  12742-3 0  9991
2 22286  82.5189 122.3631 0015999 256.8354 103.1084 14.97659814794022
SL-16 R/B               
1 22566U 93016B   26188.71880551 -.00000175  00000+0 -65416-4 0  9990
2 22566  71.0085 323.0831 0009083 151.4570 208.7052 14.15311830719151
COSMOS 2242             
1 22626U 93024A   26188.36794657  .00001589  00000+0  13576-3 0  9995
2 22626  82.5192 152.2348 0014374 261.9777  97.9814 14.96968252798295
SL-16 R/B               
1 22803U 93059B   26188.25239224 -.00000026  00000+0  10919-4 0  9997
2 22803  70.9906 118.9903 0016231  20.8890 339.2893 14.17251272696470
ARIANE 40 R/B           
1 22830U 93061H   26188.73482378  .00000143  00000+0  68083-4 0  9997
2 22830  98.4809 255.1642 0009499 290.7400  69.2766 14.32916525711297
COSMOS 2278             
1 23087U 94023A   26188.68578034 -.00000225  00000+0 -92609-4 0  9994
2 23087  71.0537 284.0376 0009995 217.0234 143.0200 14.14394633661771
SL-16 R/B               
1 23088U 94023B   26187.68871691 -.00000212  00000+0 -84573-4 0  9996
2 23088  70.9977 180.9760 0001599 157.4247 202.6946 14.15024765662926
SL-16 R/B               
1 23343U 94074B   26188.02510892  .00000351  00000+0  53512-4 0  9999
2 23343  97.6984 213.9188 0006456 179.4769 210.7216 14.79519407704890
SL-16 R/B               
1 23405U 94077B   26188.75451595 -.00000259  00000+0 -10805-3 0  9991
2 23405  70.9831  99.8938 0004014 309.3746  50.7021 14.15576720633220
